{"type":"FeatureCollection","features":[{"type":"Feature","properties":{"region_id":"permian","name":"Permian","counties":55},"geometry":{"type":"Polygon","coordinates":[[[-104.1024,31.1052],[-104.9172,30.6636],[-104.9184,32.0005],[-104.8477,32.0005],[-104.8515,32.5205],[-105.354,32.5188],[-105.316,32.9621],[-105.317,33.1323],[-104.9055,33.1389],[-104.9038,33.3059],[-104.8851,33.312],[-104.8934,34.0884],[-104.7864,34.0877],[-104.7861,34.0001],[-104.1563,33.9954],[-104.1556,34.0832],[-103.946,34.0825],[-103.9488,34.6051],[-103.7382,34.6047],[-103.7401,34.3031],[-100.5173,34.3141],[-100.5192,32.9629],[-100.1442,32.96],[-100.1519,32.0826],[-100.2351,32.0824],[-100.2338,31.5822],[-99.7217,31.5768],[-99.6249,31.4674],[-99.6018,31.492],[-99.6036,30.9407],[-99.4848,30.9406],[-99.4845,30.4996],[-99.304,30.4998],[-99.3017,30.2867],[-99.7541,30.2907],[-99.7576,30.0741],[-99.6899,30.0739],[-99.6912,29.9086],[-99.6028,29.9077],[-99.6031,29.6272],[-100.6999,29.6239],[-100.6991,29.4197],[-100.7578,29.2383],[-100.8019,29.2328],[-100.8868,29.3078],[-100.9956,29.3634],[-101.0602,29.4587],[-101.1375,29.4735],[-101.1927,29.5203],[-101.2549,29.5203],[-101.3055,29.5779],[-101.3073,29.6407],[-101.3672,29.664],[-101.4006,29.7381],[-101.5616,29.7947],[-101.6546,29.7652],[-101.9662,29.8073],[-102.1157,29.7924],[-102.3014,29.8777],[-102.3187,29.8722],[-103.5851,30.7665],[-104.1024,31.1052]]]}},{"type":"Feature","properties":{"region_id":"bakken","name":"Bakken","counties":20},"geometry":{"type":"Polygon","coordinates":[[[-104.1319,47.3539],[-104.4203,47.3544],[-104.3162,47.1805],[-104.3061,47.042],[-104.4121,46.904],[-104.6038,46.8609],[-105.0275,46.8615],[-105.0695,46.9192],[-105.197,46.9192],[-105.1967,46.9772],[-105.3248,46.9772],[-105.3249,47.1815],[-105.833,47.1811],[-105.8326,47.0931],[-105.9599,47.093],[-105.9598,47.181],[-106.1704,47.1808],[-106.1707,47.3545],[-106.2982,47.3543],[-106.2981,47.529],[-106.2609,47.8684],[-106.3581,47.8684],[-106.3583,47.9572],[-106.4186,47.9575],[-106.4006,48.0619],[-106.2293,48.0264],[-106.0062,48.0337],[-105.8439,48.0103],[-105.8438,48.219],[-105.8046,48.219],[-105.8044,48.5634],[-104.9734,48.5632],[-104.9733,48.6501],[-105.0385,48.6501],[-105.0382,48.9105],[-105.0576,48.9992],[-100.1826,48.9992],[-100.183,48.7189],[-100.1455,48.7189],[-100.1459,48.5452],[-100.2766,48.5448],[-100.2766,48.3712],[-100.237,48.0219],[-100.198,47.8477],[-100.5852,47.8478],[-100.5851,47.6741],[-100.6724,47.6739],[-100.6732,47.3276],[-100.7493,47.3277],[-100.7494,47.1572],[-100.9654,47.1571],[-100.9776,47.25],[-101.0346,47.2864],[-101.7646,47.2415],[-101.7644,46.9813],[-102.0959,46.9813],[-102.0967,46.631],[-103.8009,46.6297],[-103.8009,46.5407],[-104.0451,46.5409],[-104.045,47.3971],[-104.1319,47.3539]]]}},{"type":"Feature","properties":{"region_id":"eagle_ford","name":"Eagle Ford","counties":23},"geometry":{"type":"Polygon","coordinates":[[[-98.8033,28.0575],[-98.7981,27.268],[-99.3336,27.2732],[-99.3706,27.3192],[-99.4608,27.2622],[-99.4879,27.2949],[-99.5297,27.3061],[-99.4875,27.4124],[-99.4975,27.5005],[-99.5283,27.4989],[-99.5301,27.5802],[-99.5568,27.6143],[-99.7046,27.655],[-99.7585,27.7171],[-99.8447,27.7788],[-99.9044,27.8753],[-99.9322,27.9677],[-99.9849,27.9907],[-100.0755,28.1249],[-100.2676,28.2503],[-100.3371,28.4272],[-100.3889,28.5157],[-100.3973,28.5756],[-100.5004,28.662],[-100.5358,28.8059],[-100.6272,28.9037],[-100.6712,29.0835],[-98.8049,29.0904],[-98.8048,29.2507],[-98.4073,29.1144],[-98.1342,29.4418],[-98.1131,29.3653],[-98.0847,29.3796],[-97.8404,29.3768],[-97.6332,29.6499],[-97.5977,29.6307],[-97.3158,29.7865],[-97.6494,30.0679],[-97.4913,30.2121],[-97.3695,30.4196],[-97.3345,30.4028],[-97.1552,30.4573],[-97.2699,30.7354],[-97.3155,30.7524],[-97.259,30.8896],[-96.8305,31.1052],[-96.7671,31.0428],[-96.7563,30.9272],[-96.6413,30.8181],[-96.6122,30.7577],[-96.6214,30.7308],[-96.567,30.6957],[-96.4576,30.7445],[-96.338,30.9205],[-96.241,30.9737],[-96.3311,31.2525],[-96.3229,31.3741],[-95.7873,31.6184],[-95.736,31.654],[-95.7101,31.6156],[-95.7393,31.5041],[-95.6555,31.3296],[-95.7252,31.2711],[-95.7287,31.1641],[-95.7644,31.0942],[-95.6565,31.0793],[-95.6812,30.987],[-95.6179,30.9304],[-95.6298,30.8999],[-95.7165,30.9114],[-95.8631,30.8641],[-96.1684,30.823],[-96.1878,30.5987],[-96.1218,30.4434],[-96.08,30.43],[-96.1473,30.3828],[-96.1546,30.3303],[-96.1787,30.3947],[-96.2725,30.3585],[-96.2992,30.3792],[-96.3574,30.3733],[-96.6409,30.2968],[-96.7345,30.2412],[-96.7946,30.1605],[-96.6472,30.1452],[-96.622,30.0443],[-96.5698,29.9615],[-96.8742,29.6327],[-96.7931,29.5774],[-96.5606,29.3354],[-96.9386,29.0632],[-96.9764,29.104],[-97.3059,28.864],[-97.4173,28.9252],[-97.7785,28.668],[-97.6969,28.5419],[-97.5585,28.5141],[-97.5514,28.4504],[-97.3756,28.3887],[-97.5676,28.1297],[-97.8177,28.1768],[-97.9041,28.1142],[-97.8831,28.0569],[-98.8033,28.0575]]]}},{"type":"Feature","properties":{"region_id":"haynesville","name":"Haynesville","counties":25},"geometry":{"type":"Polygon","coordinates":[[[-93.9111,31.1581],[-94.4578,31.0333],[-94.7516,31.1056],[-94.8429,31.1466],[-94.8605,31.235],[-94.9767,31.4091],[-95.1014,31.4699],[-95.1,31.5189],[-95.1685,31.5837],[-95.2732,31.5929],[-95.2589,31.61],[-95.2758,31.6572],[-95.3965,31.7653],[-95.4129,31.8352],[-95.4467,31.8431],[-95.4238,31.932],[-95.4464,31.9985],[-95.4285,32.0845],[-95.4786,32.1472],[-95.4887,32.2325],[-95.4492,32.3552],[-95.5943,32.4799],[-95.5945,32.687],[-95.473,32.6064],[-95.3322,32.6043],[-95.1663,32.5439],[-95.1534,32.5701],[-95.1521,32.9026],[-94.7199,32.9045],[-94.7059,32.8792],[-94.043,32.8811],[-94.043,33.0192],[-93.8071,33.0194],[-93.8633,33.0989],[-93.8329,33.1485],[-93.7366,33.1661],[-93.7394,33.2018],[-93.6649,33.3295],[-93.7053,33.3392],[-93.6991,33.3879],[-93.7448,33.4446],[-93.72,33.482],[-93.4832,33.4762],[-93.4839,33.4474],[-93.2213,33.4405],[-93.1163,33.4529],[-93.119,33.3803],[-92.9785,33.3771],[-92.9888,33.0173],[-92.0689,33.0085],[-92.0856,32.9652],[-92.0527,32.7947],[-92.0652,32.723],[-92.2243,32.5901],[-92.4152,32.5829],[-92.4152,32.6703],[-92.519,32.6708],[-92.5713,32.7486],[-92.828,32.7594],[-92.8809,32.5853],[-92.8795,32.454],[-92.777,32.4536],[-92.7732,32.236],[-92.8153,32.1474],[-92.9391,32.1479],[-92.8722,31.9459],[-92.9668,31.7813],[-92.9735,31.7089],[-92.9646,31.6807],[-92.9083,31.6252],[-92.8062,31.5985],[-92.7189,31.5175],[-92.9472,31.3468],[-92.992,31.3605],[-93.3905,31.3641],[-93.4426,31.2767],[-93.5354,31.2764],[-93.5525,31.1848],[-93.9111,31.1581]]]}},{"type":"Feature","properties":{"region_id":"appalachia","name":"Appalachia","counties":126},"geometry":{"type":"Polygon","coordinates":[[[-80.9193,37.3062],[-81.1126,37.2785],[-81.2251,37.2349],[-81.3622,37.3377],[-81.4279,37.271],[-81.5606,37.2067],[-81.6786,37.2025],[-81.7747,37.2748],[-81.8499,37.2852],[-81.896,37.332],[-81.9369,37.4199],[-81.9849,37.4543],[-81.9323,37.512],[-81.9683,37.5378],[-82.0644,37.5445],[-82.2961,37.6862],[-82.3274,37.7622],[-82.4187,37.8724],[-82.4876,37.917],[-82.465,37.9769],[-82.6262,38.1348],[-82.5719,38.3158],[-82.598,38.3449],[-82.5937,38.4218],[-82.5607,38.4043],[-82.324,38.4493],[-82.2743,38.5937],[-82.219,38.5917],[-82.1752,38.6085],[-82.2093,38.8027],[-82.1616,38.8246],[-82.1348,38.9056],[-82.0891,38.976],[-82.0071,39.0296],[-81.9418,38.9933],[-81.8985,38.9296],[-81.8274,38.9459],[-81.7757,38.9807],[-81.8079,39.084],[-81.743,39.1066],[-81.7528,39.1847],[-81.7215,39.211],[-81.7218,39.2696],[-81.8184,39.2726],[-81.8537,39.3182],[-81.8449,39.4502],[-82.0558,39.4601],[-82.0475,39.5508],[-82.1592,39.5566],[-82.1674,39.4663],[-82.2804,39.4729],[-82.2897,39.3842],[-82.5145,39.3958],[-82.5176,39.3695],[-82.7486,39.3682],[-82.7315,39.5544],[-82.6201,39.564],[-82.6175,39.6086],[-82.4961,39.6028],[-82.4903,39.6617],[-82.3745,39.655],[-82.3966,39.8331],[-82.4724,39.8372],[-82.4628,39.9304],[-82.234,39.9133],[-82.1988,39.9501],[-82.1843,40.4564],[-81.6698,40.444],[-81.65,40.6678],[-82.1262,40.6684],[-82.1293,40.9918],[-81.6477,40.9886],[-81.6477,40.914],[-81.4204,40.9065],[-81.3932,40.9885],[-81.3917,41.3483],[-81.0032,41.3479],[-81.0031,41.5015],[-80.1254,41.4804],[-79.9998,41.49],[-79.8333,41.6012],[-79.8291,41.6221],[-79.6131,41.6239],[-79.6108,41.9985],[-79.7613,41.9988],[-79.762,42.2699],[-79.4535,42.4112],[-79.3819,42.4665],[-79.1386,42.5645],[-79.1114,42.6134],[-79.0638,42.6448],[-79.0489,42.6892],[-78.9048,42.7461],[-78.8514,42.7918],[-78.8826,42.8673],[-78.9125,42.8866],[-78.9092,42.9333],[-79.02,42.9948],[-79.0054,43.0572],[-79.0196,43.0663],[-78.9453,43.067],[-78.8417,43.0189],[-78.8021,43.0658],[-78.6969,43.0863],[-78.604,43.072],[-78.5104,43.098],[-78.4644,43.0887],[-78.4644,42.8674],[-77.955,42.8628],[-77.9555,42.9059],[-77.9098,42.9878],[-77.731,42.9884],[-77.7591,42.9405],[-77.5804,42.944],[-77.6117,42.7632],[-77.5988,42.672],[-77.4869,42.6703],[-77.4909,42.5773],[-77.1438,42.5769],[-77.1072,42.4838],[-76.9893,42.4848],[-76.8898,42.4631],[-76.8956,42.5415],[-76.6967,42.5468],[-76.6914,42.2843],[-76.5383,42.2818],[-76.5636,42.1525],[-76.5577,42.0001],[-76.1058,41.9989],[-76.1162,42.1856],[-76.0812,42.2647],[-76.1302,42.4103],[-75.864,42.4157],[-75.8365,42.2443],[-75.6383,42.2487],[-75.6371,42.1956],[-75.4184,42.195],[-75.4022,42.0107],[-75.3411,41.9928],[-75.2918,41.9471],[-75.263,41.8851],[-75.1134,41.8407],[-75.0744,41.8022],[-75.0534,41.7525],[-75.0439,41.5751],[-74.9825,41.4965],[-74.8904,41.4553],[-74.7349,41.4258],[-74.6949,41.3574],[-74.7603,41.3403],[-74.8157,41.2962],[-74.9053,41.1557],[-74.9924,41.093],[-75.1565,41.1503],[-75.1297,41.2521],[-75.5431,41.2241],[-75.6494,41.1223],[-75.6931,41.131],[-75.7667,41.0937],[-75.7322,41.0081],[-76.028,40.9023],[-76.2078,40.9497],[-76.2846,40.8836],[-76.3072,40.8018],[-76.3803,40.7754],[-76.4115,40.8335],[-76.5016,40.8248],[-76.528,40.8826],[-76.5148,40.9585],[-76.619,41.0638],[-76.6408,41.1557],[-76.7908,41.1757],[-76.8961,41.1391],[-76.9602,41.1488],[-76.9779,41.0879],[-77.1441,41.0688],[-77.1442,41.0443],[-77.2792,40.9097],[-77.3642,40.8469],[-77.6813,40.7298],[-77.6871,40.6768],[-77.8418,40.55],[-77.8165,40.5001],[-77.9138,40.3987],[-77.8569,40.3652],[-77.7521,40.3785],[-77.703,40.2636],[-77.6718,40.2898],[-77.6027,40.2282],[-77.6147,40.1985],[-77.6054,40.1854],[-77.3601,40.3141],[-77.4208,40.2554],[-76.915,40.3285],[-76.9242,40.2892],[-76.859,40.2263],[-76.9029,40.2246],[-76.9059,40.1657],[-77.0288,40.1478],[-77.1856,40.0295],[-77.4036,39.9945],[-77.4711,39.9441],[-77.4591,39.7202],[-78.099,39.7225],[-78.0027,39.8266],[-77.921,40.0005],[-77.8645,40.0616],[-77.9256,40.104],[-78.1349,40.1651],[-78.2069,40.0863],[-78.1815,40.0589],[-78.299,39.8255],[-78.3805,39.7227],[-78.3428,39.7227],[-78.3133,39.6925],[-78.3328,39.6285],[-78.2251,39.6589],[-78.0823,39.6712],[-78.0276,39.6207],[-78.1389,39.5938],[-78.2291,39.3907],[-78.3471,39.466],[-78.3405,39.3535],[-78.4018,39.2768],[-78.4287,39.1872],[-78.4139,39.1584],[-78.5081,39.0886],[-78.5617,39.009],[-78.6205,38.9826],[-78.6816,38.9258],[-78.7728,38.8937],[-78.8693,38.763],[-78.999,38.8401],[-79.0573,38.7614],[-79.093,38.6595],[-79.1544,38.6065],[-79.2316,38.474],[-79.2978,38.4164],[-79.4766,38.4572],[-79.5426,38.5532],[-79.6491,38.5915],[-79.6897,38.4314],[-79.7346,38.3567],[-79.8041,38.3139],[-79.7875,38.2733],[-79.9162,38.1844],[-79.9712,38.0443],[-80.0362,37.9679],[-80.1996,37.8275],[-80.2923,37.6837],[-80.2234,37.6232],[-80.2824,37.5855],[-80.2916,37.5365],[-80.4648,37.4261],[-80.5448,37.4747],[-80.7701,37.3724],[-80.8364,37.4244],[-80.8651,37.4199],[-80.8832,37.3839],[-80.8355,37.3348],[-80.9193,37.3062]]]}}]}
